{
"type": "FeatureCollection",
"name": "output_schools_south",
"crs": { "type": "name", "properties": { "name": "urn:ogc:def:crs:OGC:1.3:CRS84" } },
"features": [
{ "type": "Feature", "properties": { "id": "way/128920944", "@id": "way/128920944", "addr:city": null, "addr:housenumber": null, "addr:postcode": null, "addr:street": null, "alt_name": "Sri Sivasubramaniya Nadar College of Engineering", "amenity": "college", "contact:facebook": null, "contact:instagram": null, "contact:twitter": null, "education": null, "email": null, "internet_access": null, "name": "SSN College of Engineering", "name:en": null, "name:ta": null, "opening_hours": null, "operator": null, "phone": null, "website": "https://www.ssn.edu.in/", "wikidata": "Q7586280", "wikimedia_commons": "Category:SSN College of Engineering", "wikipedia": "en:Sri Sivasubramaniya Nadar College of Engineering", "bus_covered": false, "metro_covered": false }, "geometry": { "type": "Polygon", "coordinates": [ [ [ 80.1926048, 12.7508881 ], [ 80.1940545, 12.7489828 ], [ 80.1989565, 12.7482998 ], [ 80.2013791, 12.7494995 ], [ 80.2009716, 12.7498854 ], [ 80.2010434, 12.7504111 ], [ 80.2012242, 12.7514165 ], [ 80.2012648, 12.7516401 ], [ 80.2021347, 12.7514688 ], [ 80.2022213, 12.7517744 ], [ 80.2030661, 12.751595 ], [ 80.2037906, 12.7513178 ], [ 80.2041102, 12.7516165 ], [ 80.2036805, 12.751756 ], [ 80.2038189, 12.7526045 ], [ 80.2037596, 12.7533604 ], [ 80.2027789, 12.7549417 ], [ 80.2015046, 12.7557288 ], [ 80.201244, 12.7545853 ], [ 80.2001693, 12.7547695 ], [ 80.1987364, 12.7549728 ], [ 80.197831, 12.7550363 ], [ 80.1976617, 12.7545027 ], [ 80.1974337, 12.7539564 ], [ 80.1957941, 12.7538331 ], [ 80.195742, 12.7541507 ], [ 80.1946021, 12.7544112 ], [ 80.1944718, 12.7537759 ], [ 80.1937814, 12.753814 ], [ 80.1937605, 12.7535954 ], [ 80.1937293, 12.7532677 ], [ 80.1928565, 12.7533503 ], [ 80.1928304, 12.753166 ], [ 80.1916936, 12.7531903 ], [ 80.1916721, 12.7536507 ], [ 80.1904383, 12.7537345 ], [ 80.1900306, 12.7534205 ], [ 80.1893869, 12.7528764 ], [ 80.1883998, 12.7528031 ], [ 80.1885393, 12.7511184 ], [ 80.1897195, 12.7512335 ], [ 80.1907709, 12.7512335 ], [ 80.1917325, 12.7510559 ], [ 80.1926048, 12.7508881 ] ] ] } },
{ "type": "Feature", "properties": { "id": "node/2125926272", "@id": "node/2125926272", "addr:city": null, "addr:housenumber": null, "addr:postcode": null, "addr:street": null, "alt_name": null, "amenity": "school", "contact:facebook": null, "contact:instagram": null, "contact:twitter": null, "education": null, "email": null, "internet_access": null, "name": "SMK Fomra Institute Of Technology", "name:en": null, "name:ta": null, "opening_hours": null, "operator": null, "phone": null, "website": null, "wikidata": null, "wikimedia_commons": null, "wikipedia": null, "bus_covered": false, "metro_covered": false }, "geometry": { "type": "Point", "coordinates": [ 80.2046545, 12.766665 ] } },
{ "type": "Feature", "properties": { "id": "node/2125926806", "@id": "node/2125926806", "addr:city": null, "addr:housenumber": null, "addr:postcode": null, "addr:street": null, "alt_name": null, "amenity": "school", "contact:facebook": null, "contact:instagram": null, "contact:twitter": null, "education": null, "email": null, "internet_access": null, "name": "PSB Polytechnic College", "name:en": null, "name:ta": null, "opening_hours": null, "operator": null, "phone": null, "website": null, "wikidata": null, "wikimedia_commons": null, "wikipedia": null, "bus_covered": false, "metro_covered": false }, "geometry": { "type": "Point", "coordinates": [ 80.2094611, 12.7645723 ] } },
{ "type": "Feature", "properties": { "id": "node/2125931152", "@id": "node/2125931152", "addr:city": null, "addr:housenumber": null, "addr:postcode": null, "addr:street": null, "alt_name": null, "amenity": "school", "contact:facebook": null, "contact:instagram": null, "contact:twitter": null, "education": null, "email": null, "internet_access": null, "name": "Professor Dhanapalan College For Women", "name:en": null, "name:ta": null, "opening_hours": null, "operator": null, "phone": null, "website": null, "wikidata": null, "wikimedia_commons": null, "wikipedia": null, "bus_covered": false, "metro_covered": false }, "geometry": { "type": "Point", "coordinates": [ 80.218881, 12.7948315 ] } },
{ "type": "Feature", "properties": { "id": "node/2125931156", "@id": "node/2125931156", "addr:city": null, "addr:housenumber": null, "addr:postcode": null, "addr:street": null, "alt_name": null, "amenity": "school", "contact:facebook": null, "contact:instagram": null, "contact:twitter": null, "education": null, "email": null, "internet_access": null, "name": null, "name:en": null, "name:ta": null, "opening_hours": null, "operator": null, "phone": null, "website": null, "wikidata": null, "wikimedia_commons": null, "wikipedia": null, "bus_covered": false, "metro_covered": false }, "geometry": { "type": "Point", "coordinates": [ 80.2075084, 12.7729222 ] } },
{ "type": "Feature", "properties": { "id": "node/4447081480", "@id": "node/4447081480", "addr:city": "kanchipuram", "addr:housenumber": "XS Real, P4, E1A,", "addr:postcode": "603103", "addr:street": "Amity Apartments, Padur Landmark, Opp. Chettinad Hospitals, Padur Kanchipuram", "alt_name": null, "amenity": "school", "contact:facebook": null, "contact:instagram": null, "contact:twitter": null, "education": null, "email": null, "internet_access": null, "name": "Hello Kids - Ilanthalir", "name:en": null, "name:ta": null, "opening_hours": null, "operator": null, "phone": "+91 9994379967", "website": null, "wikidata": null, "wikimedia_commons": null, "wikipedia": null, "bus_covered": false, "metro_covered": false }, "geometry": { "type": "Point", "coordinates": [ 80.2217236, 12.7970554 ] } },
{ "type": "Feature", "properties": { "id": "node/4447101707", "@id": "node/4447101707", "addr:city": "Chennai", "addr:housenumber": "Plot no-6", "addr:postcode": "603103", "addr:street": ", Annai Terasa Street, Kazhipattur, OMR", "alt_name": null, "amenity": "school", "contact:facebook": null, "contact:instagram": null, "contact:twitter": null, "education": null, "email": null, "internet_access": null, "name": "Kidzee - Guduvancheri", "name:en": null, "name:ta": null, "opening_hours": null, "operator": null, "phone": "+91 9187546 70166", "website": null, "wikidata": null, "wikimedia_commons": null, "wikipedia": null, "bus_covered": false, "metro_covered": false }, "geometry": { "type": "Point", "coordinates": [ 80.2284467, 12.8144437 ] } },
{ "type": "Feature", "properties": { "id": "node/5304600401", "@id": "node/5304600401", "addr:city": null, "addr:housenumber": null, "addr:postcode": null, "addr:street": null, "alt_name": null, "amenity": "college", "contact:facebook": null, "contact:instagram": null, "contact:twitter": null, "education": "college", "email": null, "internet_access": null, "name": "Mohamed Sathak A.J. Academy of Architecture", "name:en": null, "name:ta": "முஹம்மது சதக் ஏ.ஜெ. அகாடமி ஆ ஆஃப் ஆர்க்கிடெக்ச்சர்", "opening_hours": null, "operator": null, "phone": null, "website": null, "wikidata": null, "wikimedia_commons": null, "wikipedia": null, "bus_covered": false, "metro_covered": false }, "geometry": { "type": "Point", "coordinates": [ 80.2214075, 12.8346315 ] } },
{ "type": "Feature", "properties": { "id": "node/5304600788", "@id": "node/5304600788", "addr:city": null, "addr:housenumber": null, "addr:postcode": null, "addr:street": null, "alt_name": null, "amenity": "college", "contact:facebook": null, "contact:instagram": null, "contact:twitter": null, "education": "college", "email": null, "internet_access": null, "name": "Mohamed Sathak A.J. College of Engineering", "name:en": null, "name:ta": "முஹம்மது சதக் ஏ.ஜெ. பொறியியல் கல்லூரி", "opening_hours": null, "operator": null, "phone": null, "website": null, "wikidata": null, "wikimedia_commons": null, "wikipedia": null, "bus_covered": false, "metro_covered": false }, "geometry": { "type": "Point", "coordinates": [ 80.2186016, 12.8356916 ] } },
{ "type": "Feature", "properties": { "id": "node/6189376285", "@id": "node/6189376285", "addr:city": null, "addr:housenumber": null, "addr:postcode": null, "addr:street": "Rajiv Gandhi Salai", "alt_name": null, "amenity": "school", "contact:facebook": null, "contact:instagram": null, "contact:twitter": null, "education": null, "email": null, "internet_access": null, "name": null, "name:en": "Padma adarsh higher secondry school", "name:ta": null, "opening_hours": null, "operator": null, "phone": null, "website": null, "wikidata": null, "wikimedia_commons": null, "wikipedia": null, "bus_covered": true, "metro_covered": true }, "geometry": { "type": "Point", "coordinates": [ 80.2316079, 12.8256554 ] } }
]
}
