{
"type": "FeatureCollection",
"name": "output_hospitals_south",
"crs": { "type": "name", "properties": { "name": "urn:ogc:def:crs:OGC:1.3:CRS84" } },
"features": [
{ "type": "Feature", "properties": { "id": "node/2125931950", "@id": "node/2125931950", "addr:block": "Tiruporur", "addr:city": null, "addr:district": "Kancheepuram", "addr:full": "Kelambakkam, Rajiv Gandhi Salai", "addr:housenumber": null, "addr:postcode": "603103", "addr:state": "Tamil Nadu", "addr:street": null, "addr:subdistrict": "Chengalpattu", "addr:suburb": null, "amenity": "hospital", "description": null, "healthcare": null, "healthcare:speciality": null, "name": "Chettinadu Hospital & Research Institute", "opening_hours": null, "phone": null, "source": "OpenGovernmentData", "website": null, "bus_covered": false, "metro_covered": false }, "geometry": { "type": "Point", "coordinates": [ 80.2155228, 12.7960843 ] } },
{ "type": "Feature", "properties": { "id": "node/5321368440", "@id": "node/5321368440", "addr:block": null, "addr:city": null, "addr:district": null, "addr:full": null, "addr:housenumber": null, "addr:postcode": null, "addr:state": null, "addr:street": null, "addr:subdistrict": null, "addr:suburb": null, "amenity": "hospital", "description": null, "healthcare": "hospital", "healthcare:speciality": null, "name": "Marhura hospital", "opening_hours": null, "phone": null, "source": null, "website": null, "bus_covered": true, "metro_covered": true }, "geometry": { "type": "Point", "coordinates": [ 80.2275731, 12.8369284 ] } },
{ "type": "Feature", "properties": { "id": "node/6930405963", "@id": "node/6930405963", "addr:block": null, "addr:city": null, "addr:district": "Kanchipuram", "addr:full": "Chettinad Health City, It Highway Omr Road,Rajiv Gandhi Salai, Kelambakam", "addr:housenumber": null, "addr:postcode": "603103", "addr:state": "Tamil Nadu", "addr:street": null, "addr:subdistrict": null, "addr:suburb": null, "amenity": "hospital", "description": null, "healthcare": null, "healthcare:speciality": null, "name": "Chettinad Hospital", "opening_hours": null, "phone": null, "source": "OpenGovernmentData", "website": null, "bus_covered": false, "metro_covered": false }, "geometry": { "type": "Point", "coordinates": [ 80.2175961, 12.7971558 ] } },
{ "type": "Feature", "properties": { "id": "node/7820874276", "@id": "node/7820874276", "addr:block": null, "addr:city": null, "addr:district": "Chengalpattu", "addr:full": "Siruseri", "addr:housenumber": null, "addr:postcode": "603103", "addr:state": "Tamil Nadu", "addr:street": null, "addr:subdistrict": null, "addr:suburb": null, "amenity": "hospital", "description": null, "healthcare": "hospital", "healthcare:speciality": null, "name": "Punarjeevan Hospital", "opening_hours": null, "phone": null, "source": "Local Knowledge", "website": null, "bus_covered": false, "metro_covered": false }, "geometry": { "type": "Point", "coordinates": [ 80.222171100000011, 12.817871 ] } },
{ "type": "Feature", "properties": { "id": "node/7820874282", "@id": "node/7820874282", "addr:block": null, "addr:city": null, "addr:district": "Chengalpattu", "addr:full": "Padur", "addr:housenumber": null, "addr:postcode": "603103", "addr:state": "Tamil Nadu", "addr:street": null, "addr:subdistrict": null, "addr:suburb": null, "amenity": "clinic", "description": null, "healthcare": "clinic", "healthcare:speciality": null, "name": "Thulasi Clinic Centre", "opening_hours": null, "phone": null, "source": "Local Knowledge", "website": null, "bus_covered": false, "metro_covered": false }, "geometry": { "type": "Point", "coordinates": [ 80.224703, 12.8054378 ] } },
{ "type": "Feature", "properties": { "id": "node/7820874283", "@id": "node/7820874283", "addr:block": null, "addr:city": null, "addr:district": "Chengalpattu", "addr:full": "Padur", "addr:housenumber": null, "addr:postcode": "603103", "addr:state": "Tamil Nadu", "addr:street": null, "addr:subdistrict": null, "addr:suburb": null, "amenity": "clinic", "description": null, "healthcare": "clinic", "healthcare:speciality": null, "name": "Padur Clinic", "opening_hours": null, "phone": null, "source": "Local Knowledge", "website": null, "bus_covered": false, "metro_covered": false }, "geometry": { "type": "Point", "coordinates": [ 80.2247264, 12.8054706 ] } },
{ "type": "Feature", "properties": { "id": "node/7820874284", "@id": "node/7820874284", "addr:block": null, "addr:city": null, "addr:district": "Chengalpattu", "addr:full": "Padur", "addr:housenumber": null, "addr:postcode": "603103", "addr:state": "Tamil Nadu", "addr:street": null, "addr:subdistrict": null, "addr:suburb": null, "amenity": "hospital", "description": null, "healthcare": "hospital", "healthcare:speciality": null, "name": "Supreme Speciality Hospitals", "opening_hours": null, "phone": null, "source": "Local Knowledge", "website": null, "bus_covered": true, "metro_covered": false }, "geometry": { "type": "Point", "coordinates": [ 80.2244216, 12.8063158 ] } },
{ "type": "Feature", "properties": { "id": "node/7820874293", "@id": "node/7820874293", "addr:block": null, "addr:city": null, "addr:district": "Chengalpattu", "addr:full": "Kelambakkam", "addr:housenumber": null, "addr:postcode": "603103", "addr:state": "Tamil Nadu", "addr:street": null, "addr:subdistrict": null, "addr:suburb": null, "amenity": "clinic", "description": null, "healthcare": null, "healthcare:speciality": null, "name": "AKM ENT Clinic", "opening_hours": null, "phone": null, "source": "Local Knowledge", "website": null, "bus_covered": true, "metro_covered": false }, "geometry": { "type": "Point", "coordinates": [ 80.2244334, 12.8065833 ] } },
{ "type": "Feature", "properties": { "id": "node/9591995528", "@id": "node/9591995528", "addr:block": null, "addr:city": "Chennai", "addr:district": null, "addr:full": null, "addr:housenumber": "1/79", "addr:postcode": "600130", "addr:state": null, "addr:street": "Rajiv Gandhi Salai", "addr:subdistrict": null, "addr:suburb": "Navalur", "amenity": "hospital", "description": "24 hours service", "healthcare": "hospital", "healthcare:speciality": null, "name": "S B Hospital", "opening_hours": "Mo-Su 12:00-00:00", "phone": "+919514577333", "source": null, "website": "https://s-b-hospital.business.site/", "bus_covered": true, "metro_covered": false }, "geometry": { "type": "Point", "coordinates": [ 80.2263842, 12.8461109 ] } },
{ "type": "Feature", "properties": { "id": "node/9952825959", "@id": "node/9952825959", "addr:block": null, "addr:city": "Kazhipattur", "addr:district": null, "addr:full": null, "addr:housenumber": null, "addr:postcode": "603103", "addr:state": null, "addr:street": "Annai Theresa Street", "addr:subdistrict": null, "addr:suburb": null, "amenity": "hospital", "description": null, "healthcare": "hospital", "healthcare:speciality": "acupuncture;traditional_chinese_medicine;headac;chiropractic;alternative;pain_control;rheumatology", "name": "Chennai Best Acupuncture Clinic in OMR Padur", "opening_hours": null, "phone": null, "source": null, "website": null, "bus_covered": false, "metro_covered": false }, "geometry": { "type": "Point", "coordinates": [ 80.2257817, 12.8124897 ] } }
]
}
