{
"type": "FeatureCollection",
"name": "output_slums_south",
"crs": { "type": "name", "properties": { "name": "urn:ogc:def:crs:OGC:1.3:CRS84" } },
"features": [
{ "type": "Feature", "properties": { "id": null, "Name": null, "description": null, "timestamp": null, "begin": null, "end": null, "altitudeMode": null, "tessellate": -1, "extrude": 0, "visibility": -1, "drawOrder": null, "icon": null, "OBJECTID": 725.0, "OBJECTID_1": 900.0, "SLUM_NAME": "Uthandi", "WARD_NO": 199.0, "ZONE_NO": 15, "SHAPE.AREA": 100237.47314772, "SHAPE.LEN": 1461.7849958439001 }, "geometry": { "type": "MultiPolygon", "coordinates": [ [ [ [ 80.242841439944399, 12.871038687574698 ], [ 80.242837513408304, 12.870838841806899 ], [ 80.243171065958094, 12.870844198738 ], [ 80.243171325571197, 12.870844203116697 ], [ 80.243205334889595, 12.870844748705698 ], [ 80.243205475026699, 12.870843999068201 ], [ 80.243205518145899, 12.870843767871499 ], [ 80.243417116311093, 12.8697031768339 ], [ 80.243417186379617, 12.8697027976346 ], [ 80.243422698442203, 12.8696730843517 ], [ 80.243422720900099, 12.869672963498401 ], [ 80.243479992092702, 12.869364246054699 ], [ 80.243480014550599, 12.869364126952698 ], [ 80.243484463007903, 12.869340149792601 ], [ 80.243484546551201, 12.869339702284401 ], [ 80.243525524999498, 12.869118814373598 ], [ 80.243541541062697, 12.869115071414498 ], [ 80.243542011779994, 12.868957987934198 ], [ 80.243493407533194, 12.868756354849598 ], [ 80.243493338362896, 12.868756068478698 ], [ 80.243487375346106, 12.868731335486302 ], [ 80.243487338515095, 12.8687311787267 ], [ 80.243313713035306, 12.868010917049499 ], [ 80.2433136276954, 12.868010559741499 ], [ 80.243305974947518, 12.867978811879697 ], [ 80.24330592643841, 12.867978610456102 ], [ 80.243259691947401, 12.8677868078155 ], [ 80.243083298758194, 12.8673598276061 ], [ 80.2430832646222, 12.867359744409198 ], [ 80.243068877204607, 12.867324919054498 ], [ 80.2428737316839, 12.866852541356302 ], [ 80.242873604123105, 12.866852234840698 ], [ 80.242869068529203, 12.866841256328696 ], [ 80.241964802804702, 12.867091160107002 ], [ 80.241959554846801, 12.867092610362098 ], [ 80.241920168213198, 12.867103495157002 ], [ 80.241920137670505, 12.8671035030388 ], [ 80.241884228415302, 12.867113427127 ], [ 80.241884199669215, 12.867113435008802 ], [ 80.241820586370693, 12.867131014971097 ], [ 80.241855860516907, 12.867302999728897 ], [ 80.240988702400102, 12.8674384031378 ], [ 80.241010397612598, 12.867634175846897 ], [ 80.241010442528307, 12.867634584825002 ], [ 80.241099045161405, 12.868434151429597 ], [ 80.241102254841906, 12.868463126599504 ], [ 80.241102267418398, 12.868463236068598 ], [ 80.241162555153707, 12.8690073049939 ], [ 80.241318597908403, 12.869856804144799 ], [ 80.241318618569693, 12.869856918867802 ], [ 80.241322694226099, 12.869879110327895 ], [ 80.241322749023396, 12.8698794072066 ], [ 80.241404004335706, 12.870321758610599 ], [ 80.241460979982605, 12.870313326921798 ], [ 80.241750920223794, 12.870270420585701 ], [ 80.241805589895307, 12.8707926418837 ], [ 80.242405821710307, 12.870696274885599 ], [ 80.242517447265797, 12.870806439245801 ], [ 80.242517636810305, 12.870806626655199 ], [ 80.242522840750794, 12.870811762899299 ], [ 80.242477527032904, 12.870829633349699 ], [ 80.242475417788597, 12.870830465307398 ], [ 80.242134181049806, 12.870965046239201 ], [ 80.242132503895206, 12.870965708301998 ], [ 80.242087110227303, 12.870983610268299 ], [ 80.2420866916124, 12.870983775784 ], [ 80.242032645371594, 12.871005090524299 ], [ 80.242287580961005, 12.871166775631199 ], [ 80.2428435905112, 12.871148133674598 ], [ 80.242842468515406, 12.8710910500628 ], [ 80.242842466718798, 12.871090939719098 ], [ 80.242841441741021, 12.8710387593857 ], [ 80.242841439944399, 12.871038687574698 ] ] ] ] } },
{ "type": "Feature", "properties": { "id": null, "Name": null, "description": null, "timestamp": null, "begin": null, "end": null, "altitudeMode": null, "tessellate": -1, "extrude": 0, "visibility": -1, "drawOrder": null, "icon": null, "OBJECTID": 726.0, "OBJECTID_1": 901.0, "SLUM_NAME": "Ezhilmuha Nagar", "WARD_NO": 200.0, "ZONE_NO": 15, "SHAPE.AREA": 11230.80244677, "SHAPE.LEN": 439.84719780359598 }, "geometry": { "type": "MultiPolygon", "coordinates": [ [ [ [ 80.213282109619101, 12.862893915024097 ], [ 80.212481803227405, 12.862734371104398 ], [ 80.212397529575696, 12.863001874989299 ], [ 80.212345995024506, 12.863121731392299 ], [ 80.212345845904096, 12.8631220799495 ], [ 80.2123304505768, 12.863157885876099 ], [ 80.212330339185698, 12.8631581442287 ], [ 80.212250366667504, 12.863344143170902 ], [ 80.212250248988198, 12.863344415535702 ], [ 80.212234000261404, 12.863382206803198 ], [ 80.212233861920794, 12.863382529086799 ], [ 80.212153150089193, 12.863570246123802 ], [ 80.212153092597006, 12.8635703774893 ], [ 80.212139099539812, 12.8636029219841 ], [ 80.212138943232915, 12.863603284552998 ], [ 80.212081190543302, 12.863737603128801 ], [ 80.212080729707594, 12.863738675070801 ], [ 80.212050707112496, 12.863808499297601 ], [ 80.212049097331501, 12.863819343073901 ], [ 80.212046929696697, 12.863833945651496 ], [ 80.212087651226796, 12.863837214898297 ], [ 80.2120890921246, 12.863837330499901 ], [ 80.212851028775503, 12.863898493343298 ], [ 80.212863188371216, 12.8638701552062 ], [ 80.212863202744202, 12.863870123678497 ], [ 80.212878346543306, 12.863834831930101 ], [ 80.212878477697302, 12.863834527162398 ], [ 80.212974348599403, 12.863611112185996 ], [ 80.213282109619101, 12.862893915024097 ] ] ] ] } },
{ "type": "Feature", "properties": { "id": null, "Name": null, "description": null, "timestamp": null, "begin": null, "end": null, "altitudeMode": null, "tessellate": -1, "extrude": 0, "visibility": -1, "drawOrder": null, "icon": null, "OBJECTID": 738.0, "OBJECTID_1": 914.0, "SLUM_NAME": "Semenchery (Panjayath Salai Street)", "WARD_NO": 200.0, "ZONE_NO": 15, "SHAPE.AREA": 9585.6617440400005, "SHAPE.LEN": 452.49454630319002 }, "geometry": { "type": "MultiPolygon", "coordinates": [ [ [ [ 80.226354254394721, 12.865893595069599 ], [ 80.226393234989899, 12.864960678119701 ], [ 80.225713398067697, 12.865174358646499 ], [ 80.225712737805907, 12.865174565326898 ], [ 80.225714317044194, 12.865181183479997 ], [ 80.225734396187505, 12.865265642202996 ], [ 80.225736338345101, 12.865273811332299 ], [ 80.225795819393298, 12.865725921601101 ], [ 80.225990871489302, 12.866351586704798 ], [ 80.225991011626419, 12.866351993933398 ], [ 80.225991028694494, 12.866352017578999 ], [ 80.225992936716096, 12.866353177961702 ], [ 80.226037629698098, 12.866541174770502 ], [ 80.226043668173503, 12.866541173894701 ], [ 80.226327444175098, 12.866535262515699 ], [ 80.226354254394721, 12.865893595069599 ] ] ] ] } },
{ "type": "Feature", "properties": { "id": null, "Name": null, "description": null, "timestamp": null, "begin": null, "end": null, "altitudeMode": null, "tessellate": -1, "extrude": 0, "visibility": -1, "drawOrder": null, "icon": null, "OBJECTID": 740.0, "OBJECTID_1": 916.0, "SLUM_NAME": "Rajiv Gandhi Nagar", "WARD_NO": 200.0, "ZONE_NO": 15, "SHAPE.AREA": 45936.865188825002, "SHAPE.LEN": 1110.22786446858 }, "geometry": { "type": "MultiPolygon", "coordinates": [ [ [ [ 80.231775756915994, 12.859624121492999 ], [ 80.231429815700096, 12.857896674547602 ], [ 80.231324258264294, 12.857225528612801 ], [ 80.230794528029506, 12.857395963002199 ], [ 80.230788857863402, 12.857251372368099 ], [ 80.230423258814099, 12.857293765964901 ], [ 80.229816489958793, 12.857364123590699 ], [ 80.229824404116499, 12.857628783375999 ], [ 80.229856274546094, 12.858694709780098 ], [ 80.229934215075104, 12.859074668906498 ], [ 80.229958236924105, 12.859178057162799 ], [ 80.230921538132506, 12.859163327325298 ], [ 80.231031967132097, 12.859636392977899 ], [ 80.231643361412793, 12.859573156990299 ], [ 80.231722342190906, 12.860238104870099 ], [ 80.232075916391807, 12.8602030140407 ], [ 80.232047976091494, 12.859704394964599 ], [ 80.231775756915994, 12.859624121492999 ] ] ] ] } },
{ "type": "Feature", "properties": { "id": null, "Name": null, "description": null, "timestamp": null, "begin": null, "end": null, "altitudeMode": null, "tessellate": -1, "extrude": 0, "visibility": -1, "drawOrder": null, "icon": null, "OBJECTID": 745.0, "OBJECTID_1": 921.0, "SLUM_NAME": "Uthandi Colony", "WARD_NO": 199.0, "ZONE_NO": 15, "SHAPE.AREA": 12256.41003648, "SHAPE.LEN": 626.73755695635703 }, "geometry": { "type": "MultiPolygon", "coordinates": [ [ [ [ 80.244053992203106, 12.878888793802298 ], [ 80.243833938196104, 12.878160516074599 ], [ 80.243833680379694, 12.8781596604969 ], [ 80.243791296966208, 12.8780193894977 ], [ 80.243744660030004, 12.877751314899598 ], [ 80.243743249674907, 12.877743208352998 ], [ 80.243742138458899, 12.877736819970302 ], [ 80.243738919795305, 12.877718317741797 ], [ 80.243735800844604, 12.877700388233398 ], [ 80.243735737962496, 12.877700030939298 ], [ 80.2437304235293, 12.877669482290699 ], [ 80.243730346274205, 12.8776690374245 ], [ 80.243617745148299, 12.877021781582101 ], [ 80.243447680590293, 12.877010064404898 ], [ 80.243382716225597, 12.877567334672502 ], [ 80.243371008482498, 12.877692866666795 ], [ 80.243370990516198, 12.877693066331199 ], [ 80.243368153636496, 12.877723486245998 ], [ 80.243368125788706, 12.877723785742496 ], [ 80.243304758628597, 12.878403253951298 ], [ 80.243319865596703, 12.878740853679798 ], [ 80.243430080797197, 12.8787321621862 ], [ 80.243599698892595, 12.878718788231797 ], [ 80.243626798369704, 12.879059129402499 ], [ 80.243644633521399, 12.879283118219796 ], [ 80.243765661742998, 12.8792640109861 ], [ 80.2441490770793, 12.879203479778701 ], [ 80.244054348834297, 12.878889973392699 ], [ 80.244053992203106, 12.878888793802298 ] ] ] ] } },
{ "type": "Feature", "properties": { "id": null, "Name": null, "description": null, "timestamp": null, "begin": null, "end": null, "altitudeMode": null, "tessellate": -1, "extrude": 0, "visibility": -1, "drawOrder": null, "icon": null, "OBJECTID": 789.0, "OBJECTID_1": 977.0, "SLUM_NAME": "Indra Gandhi Nagar", "WARD_NO": 200.0, "ZONE_NO": 15, "SHAPE.AREA": 29301.294400049999, "SHAPE.LEN": 760.44536173551398 }, "geometry": { "type": "MultiPolygon", "coordinates": [ [ [ [ 80.214587171284094, 12.861599100321399 ], [ 80.214374082813805, 12.861535428691202 ], [ 80.214353899466104, 12.861554471592401 ], [ 80.213769986446593, 12.861905934769398 ], [ 80.213727073925398, 12.8624731138305 ], [ 80.213535170424507, 12.8628254900276 ], [ 80.21323159824901, 12.863418193101399 ], [ 80.213149745556905, 12.863822743686301 ], [ 80.213168178088196, 12.8638450661698 ], [ 80.213168538312701, 12.8638455040544 ], [ 80.213170776914396, 12.863848213684498 ], [ 80.2145187906263, 12.8639508529432 ], [ 80.214519590126997, 12.863923382698999 ], [ 80.214519591923604, 12.8639233091344 ], [ 80.214587171284094, 12.861599100321399 ] ] ] ] } }
]
}
