{
  "type": "FeatureCollection",
  "generator": "overpass-turbo",
  "copyright": "The data included in this document is from www.openstreetmap.org. The data is made available under ODbL.",
  "timestamp": "2026-08-23T15:24:50Z",
  "features": [
    {
      "type": "Feature",
      "properties": {
        "@id": "way/128920944",
        "alt_name": "Sri Sivasubramaniya Nadar College of Engineering",
        "amenity": "college",
        "name": "SSN College of Engineering",
        "website": "https://www.ssn.edu.in/",
        "wikidata": "Q7586280",
        "wikimedia_commons": "Category:SSN College of Engineering",
        "wikipedia": "en:Sri Sivasubramaniya Nadar College of Engineering"
      },
      "geometry": {
        "type": "Polygon",
        "coordinates": [
          [
            [
              80.1926048,
              12.7508881
            ],
            [
              80.1940545,
              12.7489828
            ],
            [
              80.1989565,
              12.7482998
            ],
            [
              80.2013791,
              12.7494995
            ],
            [
              80.2009716,
              12.7498854
            ],
            [
              80.2010434,
              12.7504111
            ],
            [
              80.2012242,
              12.7514165
            ],
            [
              80.2012648,
              12.7516401
            ],
            [
              80.2021347,
              12.7514688
            ],
            [
              80.2022213,
              12.7517744
            ],
            [
              80.2030661,
              12.751595
            ],
            [
              80.2037906,
              12.7513178
            ],
            [
              80.2041102,
              12.7516165
            ],
            [
              80.2036805,
              12.751756
            ],
            [
              80.2038189,
              12.7526045
            ],
            [
              80.2037596,
              12.7533604
            ],
            [
              80.2027789,
              12.7549417
            ],
            [
              80.2015046,
              12.7557288
            ],
            [
              80.201244,
              12.7545853
            ],
            [
              80.2001693,
              12.7547695
            ],
            [
              80.1987364,
              12.7549728
            ],
            [
              80.197831,
              12.7550363
            ],
            [
              80.1976617,
              12.7545027
            ],
            [
              80.1974337,
              12.7539564
            ],
            [
              80.1957941,
              12.7538331
            ],
            [
              80.195742,
              12.7541507
            ],
            [
              80.1946021,
              12.7544112
            ],
            [
              80.1944718,
              12.7537759
            ],
            [
              80.1937814,
              12.753814
            ],
            [
              80.1937605,
              12.7535954
            ],
            [
              80.1937293,
              12.7532677
            ],
            [
              80.1928565,
              12.7533503
            ],
            [
              80.1928304,
              12.753166
            ],
            [
              80.1916936,
              12.7531903
            ],
            [
              80.1916721,
              12.7536507
            ],
            [
              80.1904383,
              12.7537345
            ],
            [
              80.1900306,
              12.7534205
            ],
            [
              80.1893869,
              12.7528764
            ],
            [
              80.1883998,
              12.7528031
            ],
            [
              80.1885393,
              12.7511184
            ],
            [
              80.1897195,
              12.7512335
            ],
            [
              80.1907709,
              12.7512335
            ],
            [
              80.1917325,
              12.7510559
            ],
            [
              80.1926048,
              12.7508881
            ]
          ]
        ]
      },
      "id": "way/128920944"
    },
    {
      "type": "Feature",
      "properties": {
        "@id": "way/166562081",
        "amenity": "college",
        "name": "Prince Shri Venkateshwara Padmavathy Engineering College"
      },
      "geometry": {
        "type": "Polygon",
        "coordinates": [
          [
            [
              80.1736348,
              12.8544319
            ],
            [
              80.1732821,
              12.8544261
            ],
            [
              80.1732827,
              12.8537964
            ],
            [
              80.173535,
              12.8537686
            ],
            [
              80.1735607,
              12.8531777
            ],
            [
              80.1733901,
              12.8531686
            ],
            [
              80.1732842,
              12.853117
            ],
            [
              80.1731758,
              12.8531084
            ],
            [
              80.1730499,
              12.8530752
            ],
            [
              80.1725603,
              12.8530681
            ],
            [
              80.1712986,
              12.8531091
            ],
            [
              80.171232,
              12.852534
            ],
            [
              80.1711557,
              12.8521047
            ],
            [
              80.1711055,
              12.8517192
            ],
            [
              80.1709567,
              12.8509262
            ],
            [
              80.1707737,
              12.8497522
            ],
            [
              80.1707858,
              12.8491869
            ],
            [
              80.1729988,
              12.8489819
            ],
            [
              80.1731526,
              12.8500756
            ],
            [
              80.1739582,
              12.8501803
            ],
            [
              80.174216,
              12.8521177
            ],
            [
              80.1745888,
              12.8524524
            ],
            [
              80.1756354,
              12.8526531
            ],
            [
              80.1756557,
              12.8527995
            ],
            [
              80.1751677,
              12.8530224
            ],
            [
              80.1752445,
              12.8536695
            ],
            [
              80.1750445,
              12.8536534
            ],
            [
              80.1750674,
              12.8538268
            ],
            [
              80.1749802,
              12.8539993
            ],
            [
              80.1750454,
              12.8541199
            ],
            [
              80.1743698,
              12.8543004
            ],
            [
              80.1739474,
              12.8543972
            ],
            [
              80.1736348,
              12.8544319
            ]
          ]
        ]
      },
      "id": "way/166562081"
    },
    {
      "type": "Feature",
      "properties": {
        "@id": "way/1185635267",
        "amenity": "college",
        "name": "Indian Institute Of Technology, Thaiyur"
      },
      "geometry": {
        "type": "Polygon",
        "coordinates": [
          [
            [
              80.1850029,
              12.7937658
            ],
            [
              80.1849639,
              12.7936937
            ],
            [
              80.1849,
              12.7936926
            ],
            [
              80.1838885,
              12.7920764
            ],
            [
              80.185846,
              12.7914718
            ],
            [
              80.1860656,
              12.7910357
            ],
            [
              80.1861509,
              12.7913608
            ],
            [
              80.187021,
              12.7910754
            ],
            [
              80.1866225,
              12.7897611
            ],
            [
              80.1866673,
              12.78966
            ],
            [
              80.1867892,
              12.7877174
            ],
            [
              80.1862241,
              12.787868
            ],
            [
              80.1858196,
              12.7865181
            ],
            [
              80.1862465,
              12.786298
            ],
            [
              80.1861733,
              12.7861256
            ],
            [
              80.185722,
              12.7863515
            ],
            [
              80.1826221,
              12.7876539
            ],
            [
              80.182551,
              12.7874577
            ],
            [
              80.1823823,
              12.7864289
            ],
            [
              80.183663,
              12.7859954
            ],
            [
              80.1831306,
              12.7844333
            ],
            [
              80.1863903,
              12.7839232
            ],
            [
              80.1863483,
              12.7848522
            ],
            [
              80.1888701,
              12.7847475
            ],
            [
              80.1898294,
              12.789299
            ],
            [
              80.1902924,
              12.790601
            ],
            [
              80.1904577,
              12.7905556
            ],
            [
              80.1933665,
              12.798736
            ],
            [
              80.1894156,
              12.7986274
            ],
            [
              80.1884521,
              12.8007669
            ],
            [
              80.1850857,
              12.7942969
            ],
            [
              80.1852524,
              12.7942585
            ],
            [
              80.1849817,
              12.7938215
            ],
            [
              80.1850029,
              12.7937658
            ]
          ]
        ]
      },
      "id": "way/1185635267"
    },
    {
      "type": "Feature",
      "properties": {
        "@id": "way/1185723790",
        "amenity": "school"
      },
      "geometry": {
        "type": "Polygon",
        "coordinates": [
          [
            [
              80.1579453,
              12.7642633
            ],
            [
              80.1578579,
              12.7637331
            ],
            [
              80.1575279,
              12.7637763
            ],
            [
              80.1574013,
              12.7634242
            ],
            [
              80.1573881,
              12.763098
            ],
            [
              80.1572553,
              12.7631265
            ],
            [
              80.1571996,
              12.7629254
            ],
            [
              80.1573757,
              12.7628641
            ],
            [
              80.1573429,
              12.7621971
            ],
            [
              80.1573403,
              12.7617147
            ],
            [
              80.1573355,
              12.7600179
            ],
            [
              80.1573081,
              12.7598387
            ],
            [
              80.1575593,
              12.7598145
            ],
            [
              80.1581415,
              12.7597196
            ],
            [
              80.1581486,
              12.7596661
            ],
            [
              80.1594369,
              12.7597644
            ],
            [
              80.1598987,
              12.7607223
            ],
            [
              80.1593212,
              12.7630706
            ],
            [
              80.1595266,
              12.7637407
            ],
            [
              80.1591443,
              12.7638477
            ],
            [
              80.1590269,
              12.7638825
            ],
            [
              80.1584864,
              12.7639343
            ],
            [
              80.1585039,
              12.7642366
            ],
            [
              80.1584304,
              12.7642445
            ],
            [
              80.1584035,
              12.7639508
            ],
            [
              80.1583218,
              12.7639559
            ],
            [
              80.1582745,
              12.7635813
            ],
            [
              80.1580579,
              12.7635955
            ],
            [
              80.1580778,
              12.7636997
            ],
            [
              80.1579418,
              12.7637196
            ],
            [
              80.1580136,
              12.7642559
            ],
            [
              80.1579453,
              12.7642633
            ]
          ]
        ]
      },
      "id": "way/1185723790"
    },
    {
      "type": "Feature",
      "properties": {
        "@id": "way/1262525428",
        "amenity": "school"
      },
      "geometry": {
        "type": "Polygon",
        "coordinates": [
          [
            [
              80.1731993,
              12.8394732
            ],
            [
              80.1732451,
              12.8387144
            ],
            [
              80.1736497,
              12.8386291
            ],
            [
              80.1737252,
              12.8387674
            ],
            [
              80.1737794,
              12.8395469
            ],
            [
              80.1731993,
              12.8394732
            ]
          ]
        ]
      },
      "id": "way/1262525428"
    },
    {
      "type": "Feature",
      "properties": {
        "@id": "node/2125926272",
        "amenity": "school",
        "name": "SMK Fomra Institute Of Technology"
      },
      "geometry": {
        "type": "Point",
        "coordinates": [
          80.2046545,
          12.766665
        ]
      },
      "id": "node/2125926272"
    },
    {
      "type": "Feature",
      "properties": {
        "@id": "node/2125926806",
        "amenity": "school",
        "name": "PSB Polytechnic College"
      },
      "geometry": {
        "type": "Point",
        "coordinates": [
          80.2094611,
          12.7645723
        ]
      },
      "id": "node/2125926806"
    },
    {
      "type": "Feature",
      "properties": {
        "@id": "node/2125931152",
        "amenity": "school",
        "name": "Professor Dhanapalan College For Women"
      },
      "geometry": {
        "type": "Point",
        "coordinates": [
          80.218881,
          12.7948315
        ]
      },
      "id": "node/2125931152"
    },
    {
      "type": "Feature",
      "properties": {
        "@id": "node/2125931156",
        "amenity": "school"
      },
      "geometry": {
        "type": "Point",
        "coordinates": [
          80.2075084,
          12.7729222
        ]
      },
      "id": "node/2125931156"
    },
    {
      "type": "Feature",
      "properties": {
        "@id": "node/4447081480",
        "addr:city": "kanchipuram",
        "addr:housenumber": "XS Real, P4, E1A,",
        "addr:postcode": "603103",
        "addr:street": "Amity Apartments, Padur Landmark, Opp. Chettinad Hospitals, Padur Kanchipuram",
        "amenity": "school",
        "name": "Hello Kids - Ilanthalir",
        "phone": "+91 9994379967"
      },
      "geometry": {
        "type": "Point",
        "coordinates": [
          80.2217236,
          12.7970554
        ]
      },
      "id": "node/4447081480"
    },
    {
      "type": "Feature",
      "properties": {
        "@id": "node/4447101707",
        "addr:city": "Chennai",
        "addr:housenumber": "Plot no-6",
        "addr:postcode": "603103",
        "addr:street": ", Annai Terasa Street, Kazhipattur, OMR",
        "amenity": "school",
        "name": "Kidzee - Guduvancheri",
        "phone": "+91 9187546 70166"
      },
      "geometry": {
        "type": "Point",
        "coordinates": [
          80.2284467,
          12.8144437
        ]
      },
      "id": "node/4447101707"
    },
    {
      "type": "Feature",
      "properties": {
        "@id": "node/5304600401",
        "amenity": "college",
        "education": "college",
        "name": "Mohamed Sathak A.J. Academy of Architecture",
        "name:ta": "முஹம்மது சதக் ஏ.ஜெ. அகாடமி ஆ ஆஃப் ஆர்க்கிடெக்ச்சர்"
      },
      "geometry": {
        "type": "Point",
        "coordinates": [
          80.2214075,
          12.8346315
        ]
      },
      "id": "node/5304600401"
    },
    {
      "type": "Feature",
      "properties": {
        "@id": "node/5304600788",
        "amenity": "college",
        "education": "college",
        "name": "Mohamed Sathak A.J. College of Engineering",
        "name:ta": "முஹம்மது சதக் ஏ.ஜெ. பொறியியல் கல்லூரி"
      },
      "geometry": {
        "type": "Point",
        "coordinates": [
          80.2186016,
          12.8356916
        ]
      },
      "id": "node/5304600788"
    },
    {
      "type": "Feature",
      "properties": {
        "@id": "node/6189376285",
        "addr:street": "Rajiv Gandhi Salai",
        "amenity": "school",
        "name:en": "Padma adarsh higher secondry school"
      },
      "geometry": {
        "type": "Point",
        "coordinates": [
          80.2316079,
          12.8256554
        ]
      },
      "id": "node/6189376285"
    },
    {
      "type": "Feature",
      "properties": {
        "@id": "node/9378879818",
        "amenity": "school",
        "name": "The School - KFI",
        "operator": "Krishnamurti Foundation"
      },
      "geometry": {
        "type": "Point",
        "coordinates": [
          80.2050179,
          12.8438802
        ]
      },
      "id": "node/9378879818"
    },
    {
      "type": "Feature",
      "properties": {
        "@id": "node/11010424405",
        "amenity": "school",
        "name": "Vellore International School (VIS) - Chennai"
      },
      "geometry": {
        "type": "Point",
        "coordinates": [
          80.1581385,
          12.763461
        ]
      },
      "id": "node/11010424405"
    },
    {
      "type": "Feature",
      "properties": {
        "@id": "node/11013406019",
        "amenity": "college",
        "name": "IIT Madras, Thaiyur Campus"
      },
      "geometry": {
        "type": "Point",
        "coordinates": [
          80.1850698,
          12.7936971
        ]
      },
      "id": "node/11013406019"
    },
    {
      "type": "Feature",
      "properties": {
        "@id": "node/13830315001",
        "addr:housenumber": "R5XV+985",
        "addr:postcode": "600130",
        "addr:street": "Ponmar - Thazhambur Road",
        "amenity": "college",
        "contact:facebook": "AgniCollege",
        "contact:instagram": "agni_college",
        "contact:twitter": "AgniCollege",
        "email": "mail@act.edu.in",
        "internet_access": "wlan",
        "name": "Agni College of Technology",
        "opening_hours": "Mo-Sa 08:30-03:30",
        "phone": "044-49972900",
        "website": "https://act.edu.in/"
      },
      "geometry": {
        "type": "Point",
        "coordinates": [
          80.194401,
          12.8484134
        ]
      },
      "id": "node/13830315001"
    }
  ]
}